[{"OBJECT_NAME":"BEIJING-3B","OBJECT_ID":"2022-103A","EPOCH":"2026-03-09T23:12:38.807712","MEAN_MOTION":14.86939199,"ECCENTRICITY":0.00253745,"INCLINATION":97.8061,"RA_OF_ASC_NODE":148.0995,"ARG_OF_PERICENTER":23.8103,"MEAN_ANOMALY":336.4281,"EPHEMERIS_TYPE":0,"CLASSIFICATION_TYPE":"U","NORAD_CAT_ID":53587,"ELEMENT_SET_NO":999,"REV_AT_EPOCH":19234,"BSTAR":0.00021963538,"MEAN_MOTION_DOT":1.92e-5,"MEAN_MOTION_DDOT":0},{"OBJECT_NAME":"SL-14 DEB","OBJECT_ID":"1989-080G","EPOCH":"2026-03-09T15:08:26.583936","MEAN_MOTION":13.18681492,"ECCENTRICITY":0.0881405,"INCLINATION":82.6856,"RA_OF_ASC_NODE":122.8071,"ARG_OF_PERICENTER":209.368,"MEAN_ANOMALY":145.5064,"EPHEMERIS_TYPE":0,"CLASSIFICATION_TYPE":"U","NORAD_CAT_ID":20308,"ELEMENT_SET_NO":999,"REV_AT_EPOCH":70613,"BSTAR":0.0010519,"MEAN_MOTION_DOT":3.505e-5,"MEAN_MOTION_DDOT":0}]
